[{"OBJECT_NAME":"IRIDIUM 33 DEB","OBJECT_ID":"1997-051UT","EPOCH":"2026-03-05T12:47:05.321472","MEAN_MOTION":14.20574009,"ECCENTRICITY":0.0217462,"INCLINATION":86.4395,"RA_OF_ASC_NODE":274.1064,"ARG_OF_PERICENTER":358.5424,"MEAN_ANOMALY":1.5101,"EPHEMERIS_TYPE":0,"CLASSIFICATION_TYPE":"U","NORAD_CAT_ID":36012,"ELEMENT_SET_NO":999,"REV_AT_EPOCH":66659,"BSTAR":0.002031,"MEAN_MOTION_DOT":5.561e-5,"MEAN_MOTION_DDOT":0},{"OBJECT_NAME":"IRIDIUM 33 DEB","OBJECT_ID":"1997-051VK","EPOCH":"2026-03-01T21:20:50.659872","MEAN_MOTION":14.99842236,"ECCENTRICITY":0.0017594,"INCLINATION":86.3146,"RA_OF_ASC_NODE":269.3331,"ARG_OF_PERICENTER":119.5716,"MEAN_ANOMALY":240.7272,"EPHEMERIS_TYPE":0,"CLASSIFICATION_TYPE":"U","NORAD_CAT_ID":36028,"ELEMENT_SET_NO":999,"REV_AT_EPOCH":88309,"BSTAR":0.0020734,"MEAN_MOTION_DOT":0.00025841,"MEAN_MOTION_DDOT":0},{"OBJECT_NAME":"IRIDIUM 33 DEB","OBJECT_ID":"1997-051VM","EPOCH":"2026-02-25T12:04:53.950080","MEAN_MOTION":14.47006283,"ECCENTRICITY":0.00148253,"INCLINATION":86.3236,"RA_OF_ASC_NODE":335.417,"ARG_OF_PERICENTER":275.8181,"MEAN_ANOMALY":84.1332,"EPHEMERIS_TYPE":0,"CLASSIFICATION_TYPE":"U","NORAD_CAT_ID":36080,"ELEMENT_SET_NO":999,"REV_AT_EPOCH":48495,"BSTAR":0.00052714098,"MEAN_MOTION_DOT":1.938e-5,"MEAN_MOTION_DDOT":0},{"OBJECT_NAME":"IRIDIUM 33 DEB","OBJECT_ID":"1997-051VQ","EPOCH":"2026-03-06T02:52:55.930656","MEAN_MOTION":14.43597471,"ECCENTRICITY":0.00248296,"INCLINATION":86.349,"RA_OF_ASC_NODE":358.2528,"ARG_OF_PERICENTER":315.2686,"MEAN_ANOMALY":44.6512,"EPHEMERIS_TYPE":0,"CLASSIFICATION_TYPE":"U","NORAD_CAT_ID":36083,"ELEMENT_SET_NO":999,"REV_AT_EPOCH":86652,"BSTAR":0.0007221947,"MEAN_MOTION_DOT":2.475e-5,"MEAN_MOTION_DDOT":0},{"OBJECT_NAME":"IRIDIUM 33 DEB","OBJECT_ID":"1997-051VU","EPOCH":"2026-03-01T06:56:50.102592","MEAN_MOTION":14.74753978,"ECCENTRICITY":0.0027954,"INCLINATION":86.2859,"RA_OF_ASC_NODE":263.3476,"ARG_OF_PERICENTER":255.4751,"MEAN_ANOMALY":104.3366,"EPHEMERIS_TYPE":0,"CLASSIFICATION_TYPE":"U","NORAD_CAT_ID":36390,"ELEMENT_SET_NO":999,"REV_AT_EPOCH":67419,"BSTAR":0.00088857,"MEAN_MOTION_DOT":6.003e-5,"MEAN_MOTION_DDOT":0},{"OBJECT_NAME":"IRIDIUM 33 DEB","OBJECT_ID":"1997-051VZ","EPOCH":"2026-02-25T15:16:02.990208","MEAN_MOTION":14.46131522,"ECCENTRICITY":0.00070006,"INCLINATION":86.3812,"RA_OF_ASC_NODE":20.4101,"ARG_OF_PERICENTER":234.8466,"MEAN_ANOMALY":125.2081,"EPHEMERIS_TYPE":0,"CLASSIFICATION_TYPE":"U","NORAD_CAT_ID":36483,"ELEMENT_SET_NO":999,"REV_AT_EPOCH":66228,"BSTAR":0.00051908604,"MEAN_MOTION_DOT":1.873e-5,"MEAN_MOTION_DDOT":0},{"OBJECT_NAME":"IRIDIUM 33 DEB","OBJECT_ID":"1997-051WG","EPOCH":"2026-03-04T04:35:09.124512","MEAN_MOTION":14.78663729,"ECCENTRICITY":0.00048041,"INCLINATION":86.3682,"RA_OF_ASC_NODE":333.6659,"ARG_OF_PERICENTER":100.9326,"MEAN_ANOMALY":259.2436,"EPHEMERIS_TYPE":0,"CLASSIFICATION_TYPE":"U","NORAD_CAT_ID":36490,"ELEMENT_SET_NO":999,"REV_AT_EPOCH":87687,"BSTAR":0.0027231289,"MEAN_MOTION_DOT":0.00020016,"MEAN_MOTION_DDOT":0},{"OBJECT_NAME":"IRIDIUM 33 DEB","OBJECT_ID":"1997-051WK","EPOCH":"2026-03-04T12:02:05.394048","MEAN_MOTION":14.66622153,"ECCENTRICITY":0.00130868,"INCLINATION":86.3608,"RA_OF_ASC_NODE":335.3291,"ARG_OF_PERICENTER":70.4596,"MEAN_ANOMALY":289.803,"EPHEMERIS_TYPE":0,"CLASSIFICATION_TYPE":"U","NORAD_CAT_ID":36493,"ELEMENT_SET_NO":999,"REV_AT_EPOCH":75716,"BSTAR":0.0019813705,"MEAN_MOTION_DOT":0.00011049,"MEAN_MOTION_DDOT":0},{"OBJECT_NAME":"IRIDIUM 33 DEB","OBJECT_ID":"1997-051XH","EPOCH":"2026-02-27T14:47:44.378304","MEAN_MOTION":14.52027279,"ECCENTRICITY":0.00227949,"INCLINATION":86.3541,"RA_OF_ASC_NODE":9.8892,"ARG_OF_PERICENTER":300.6162,"MEAN_ANOMALY":59.2795,"EPHEMERIS_TYPE":0,"CLASSIFICATION_TYPE":"U","NORAD_CAT_ID":37548,"ELEMENT_SET_NO":999,"REV_AT_EPOCH":66647,"BSTAR":0.0010559446,"MEAN_MOTION_DOT":4.301e-5,"MEAN_MOTION_DDOT":0},{"OBJECT_NAME":"IRIDIUM 33 DEB","OBJECT_ID":"1997-051XK","EPOCH":"2026-03-06T01:12:02.423520","MEAN_MOTION":14.68747861,"ECCENTRICITY":0.00028558,"INCLINATION":86.3822,"RA_OF_ASC_NODE":346.9186,"ARG_OF_PERICENTER":132.8692,"MEAN_ANOMALY":227.2763,"EPHEMERIS_TYPE":0,"CLASSIFICATION_TYPE":"U","NORAD_CAT_ID":37550,"ELEMENT_SET_NO":999,"REV_AT_EPOCH":87555,"BSTAR":0.0013920489,"MEAN_MOTION_DOT":8.136e-5,"MEAN_MOTION_DDOT":0},{"OBJECT_NAME":"IRIDIUM 33 DEB","OBJECT_ID":"1997-051XX","EPOCH":"2026-03-05T03:21:35.079840","MEAN_MOTION":14.57459949,"ECCENTRICITY":0.00229437,"INCLINATION":86.3788,"RA_OF_ASC_NODE":7.6419,"ARG_OF_PERICENTER":182.4546,"MEAN_ANOMALY":240.0547,"EPHEMERIS_TYPE":0,"CLASSIFICATION_TYPE":"U","NORAD_CAT_ID":37562,"ELEMENT_SET_NO":999,"REV_AT_EPOCH":87528,"BSTAR":0.0014098574,"MEAN_MOTION_DOT":6.444e-5,"MEAN_MOTION_DDOT":0},{"OBJECT_NAME":"IRIDIUM 33 DEB","OBJECT_ID":"1997-051YA","EPOCH":"2026-03-05T01:13:48.216864","MEAN_MOTION":14.51991247,"ECCENTRICITY":0.00130446,"INCLINATION":86.3534,"RA_OF_ASC_NODE":333.7257,"ARG_OF_PERICENTER":155.5044,"MEAN_ANOMALY":204.6784,"EPHEMERIS_TYPE":0,"CLASSIFICATION_TYPE":"U","NORAD_CAT_ID":37565,"ELEMENT_SET_NO":999,"REV_AT_EPOCH":67031,"BSTAR":0.00063775987,"MEAN_MOTION_DOT":2.598e-5,"MEAN_MOTION_DDOT":0},{"OBJECT_NAME":"IRIDIUM 33 DEB","OBJECT_ID":"1997-051YD","EPOCH":"2026-03-04T14:55:17.239584","MEAN_MOTION":14.51808226,"ECCENTRICITY":0.0091891,"INCLINATION":86.3373,"RA_OF_ASC_NODE":130.537,"ARG_OF_PERICENTER":189.4457,"MEAN_ANOMALY":170.5025,"EPHEMERIS_TYPE":0,"CLASSIFICATION_TYPE":"U","NORAD_CAT_ID":38017,"ELEMENT_SET_NO":999,"REV_AT_EPOCH":62589,"BSTAR":0.0028420336,"MEAN_MOTION_DOT":0.0001211,"MEAN_MOTION_DDOT":0},{"OBJECT_NAME":"IRIDIUM 33 DEB","OBJECT_ID":"1997-051YJ","EPOCH":"2026-03-05T12:19:37.383168","MEAN_MOTION":14.42055875,"ECCENTRICITY":0.0045998,"INCLINATION":86.2707,"RA_OF_ASC_NODE":340.1846,"ARG_OF_PERICENTER":132.5712,"MEAN_ANOMALY":227.9385,"EPHEMERIS_TYPE":0,"CLASSIFICATION_TYPE":"U","NORAD_CAT_ID":38022,"ELEMENT_SET_NO":999,"REV_AT_EPOCH":70386,"BSTAR":0.0014749,"MEAN_MOTION_DOT":4.924e-5,"MEAN_MOTION_DDOT":0},{"OBJECT_NAME":"IRIDIUM 33 DEB","OBJECT_ID":"1997-051YQ","EPOCH":"2026-03-05T10:13:21.054432","MEAN_MOTION":14.46490036,"ECCENTRICITY":0.0026943,"INCLINATION":86.3275,"RA_OF_ASC_NODE":324.3381,"ARG_OF_PERICENTER":204.6743,"MEAN_ANOMALY":155.3173,"EPHEMERIS_TYPE":0,"CLASSIFICATION_TYPE":"U","NORAD_CAT_ID":38028,"ELEMENT_SET_NO":999,"REV_AT_EPOCH":66690,"BSTAR":0.00038981,"MEAN_MOTION_DOT":1.428e-5,"MEAN_MOTION_DDOT":0},{"OBJECT_NAME":"IRIDIUM 33 DEB","OBJECT_ID":"1997-051ZC","EPOCH":"2026-03-03T14:49:03.053280","MEAN_MOTION":14.27439275,"ECCENTRICITY":0.0062368,"INCLINATION":86.2987,"RA_OF_ASC_NODE":14.0747,"ARG_OF_PERICENTER":291.7038,"MEAN_ANOMALY":192.3455,"EPHEMERIS_TYPE":0,"CLASSIFICATION_TYPE":"U","NORAD_CAT_ID":38228,"ELEMENT_SET_NO":999,"REV_AT_EPOCH":85935,"BSTAR":0.00045098,"MEAN_MOTION_DOT":1.147e-5,"MEAN_MOTION_DDOT":0}]
